{
  "type": "FeatureCollection",
  "features": [
    {
      "type": "Feature",
      "properties": {
        "norad_id": 66711,
        "name": "FLOCK 4H-8",
        "group": "last-30-days",
        "lat": 23.777518654673045,
        "lon": 69.08155028032952,
        "alt_km": 514.1559077811626,
        "timestamp": "2025-12-26T20:30:44.699890+00:00",
        "meta_object_name": "FLOCK 4H-8",
        "meta_object_id": "2025-276AX",
        "meta_epoch": "2025-12-26T14:00:04.000032",
        "meta_mean_motion": 15.17494919,
        "meta_eccentricity": 0.00024289,
        "meta_inclination": 97.4423,
        "meta_ra_of_asc_node": 72.1166,
        "meta_arg_of_pericenter": 242.7309,
        "meta_mean_anomaly": 100.1427,
        "meta_ephemeris_type": 0,
        "meta_classification_type": "U",
        "meta_norad_cat_id": 66711,
        "meta_element_set_no": 999,
        "meta_rev_at_epoch": 222,
        "meta_bstar": 0.0042709578,
        "meta_mean_motion_dot": 0.00086479,
        "meta_mean_motion_ddot": 0,
        "tle_line1": "1 66711U 25276AX  25360.58337963  .00086479  00000+0  42710-2 0  9992",
        "tle_line2": "2 66711  97.4423  72.1166 0002428 242.7309 100.1427 15.17494919  2229"
      },
      "geometry": {
        "type": "Point",
        "coordinates": [
          69.08155028032952,
          23.777518654673045
        ]
      }
    },
    {
      "type": "Feature",
      "properties": {
        "norad_id": 66712,
        "name": "FLOCK 4H-9",
        "group": "last-30-days",
        "lat": 69.32149457148726,
        "lon": 52.14002000686841,
        "alt_km": 506.5661922792806,
        "timestamp": "2025-12-26T20:30:44.699900+00:00",
        "meta_object_name": "FLOCK 4H-9",
        "meta_object_id": "2025-276AY",
        "meta_epoch": "2025-12-26T13:52:25.855392",
        "meta_mean_motion": 15.17964831,
        "meta_eccentricity": 0.00029786,
        "meta_inclination": 97.4416,
        "meta_ra_of_asc_node": 72.1291,
        "meta_arg_of_pericenter": 200.6685,
        "meta_mean_anomaly": 159.4429,
        "meta_ephemeris_type": 0,
        "meta_classification_type": "U",
        "meta_norad_cat_id": 66712,
        "meta_element_set_no": 999,
        "meta_rev_at_epoch": 422,
        "meta_bstar": 0.00036623339,
        "meta_mean_motion_dot": 7.375e-05,
        "meta_mean_motion_ddot": 0,
        "tle_line1": "1 66712U 25276AY  25360.57807703  .00007375  00000+0  36623-3 0  9991",
        "tle_line2": "2 66712  97.4416  72.1291 0002978 200.6685 159.4429 15.17964831  4227"
      },
      "geometry": {
        "type": "Point",
        "coordinates": [
          52.14002000686841,
          69.32149457148726
        ]
      }
    },
    {
      "type": "Feature",
      "properties": {
        "norad_id": 66713,
        "name": "FLOCK 4H-10",
        "group": "last-30-days",
        "lat": 3.4904590595323848,
        "lon": 71.90227640350798,
        "alt_km": 518.022328805424,
        "timestamp": "2025-12-26T20:30:44.699911+00:00",
        "meta_object_name": "FLOCK 4H-10",
        "meta_object_id": "2025-276AZ",
        "meta_epoch": "2025-12-26T12:34:59.787840",
        "meta_mean_motion": 15.17328102,
        "meta_eccentricity": 0.00036818,
        "meta_inclination": 97.439,
        "meta_ra_of_asc_node": 72.0345,
        "meta_arg_of_pericenter": 238.4407,
        "meta_mean_anomaly": 121.6468,
        "meta_ephemeris_type": 0,
        "meta_classification_type": "U",
        "meta_norad_cat_id": 66713,
        "meta_element_set_no": 999,
        "meta_rev_at_epoch": 421,
        "meta_bstar": 0.00048633669,
        "meta_mean_motion_dot": 9.64e-05,
        "meta_mean_motion_ddot": 0,
        "tle_line1": "1 66713U 25276AZ  25360.52430310  .00009640  00000+0  48634-3 0  9995",
        "tle_line2": "2 66713  97.4390  72.0345 0003681 238.4407 121.6468 15.17328102  4219"
      },
      "geometry": {
        "type": "Point",
        "coordinates": [
          71.90227640350798,
          3.4904590595323848
        ]
      }
    },
    {
      "type": "Feature",
      "properties": {
        "norad_id": 66714,
        "name": "FLOCK 4H-11",
        "group": "last-30-days",
        "lat": 39.436312516010815,
        "lon": 66.2154682288004,
        "alt_km": 510.47093421658246,
        "timestamp": "2025-12-26T20:30:44.699920+00:00",
        "meta_object_name": "FLOCK 4H-11",
        "meta_object_id": "2025-276BA",
        "meta_epoch": "2025-12-26T14:00:31.694688",
        "meta_mean_motion": 15.1787761,
        "meta_eccentricity": 0.00020631,
        "meta_inclination": 97.4407,
        "meta_ra_of_asc_node": 72.1197,
        "meta_arg_of_pericenter": 254.3004,
        "meta_mean_anomaly": 105.8002,
        "meta_ephemeris_type": 0,
        "meta_classification_type": "U",
        "meta_norad_cat_id": 66714,
        "meta_element_set_no": 999,
        "meta_rev_at_epoch": 422,
        "meta_bstar": 0.00059030438,
        "meta_mean_motion_dot": 0.00011904,
        "meta_mean_motion_ddot": 0,
        "tle_line1": "1 66714U 25276BA  25360.58370017  .00011904  00000+0  59030-3 0  9997",
        "tle_line2": "2 66714  97.4407  72.1197 0002063 254.3004 105.8002 15.17877610  4220"
      },
      "geometry": {
        "type": "Point",
        "coordinates": [
          66.2154682288004,
          39.436312516010815
        ]
      }
    },
    {
      "type": "Feature",
      "properties": {
        "norad_id": 66715,
        "name": "FLOCK 4H-12",
        "group": "last-30-days",
        "lat": 80.71678629279596,
        "lon": 19.324121597678754,
        "alt_km": 504.7924319366639,
        "timestamp": "2025-12-26T20:30:44.699929+00:00",
        "meta_object_name": "FLOCK 4H-12",
        "meta_object_id": "2025-276BB",
        "meta_epoch": "2025-12-26T13:48:50.925024",
        "meta_mean_motion": 15.1811326,
        "meta_eccentricity": 9.758e-05,
        "meta_inclination": 97.4384,
        "meta_ra_of_asc_node": 72.113,
        "meta_arg_of_pericenter": 251.7316,
        "meta_mean_anomaly": 108.3812,
        "meta_ephemeris_type": 0,
        "meta_classification_type": "U",
        "meta_norad_cat_id": 66715,
        "meta_element_set_no": 999,
        "meta_rev_at_epoch": 453,
        "meta_bstar": -5.7030685e-05,
        "meta_mean_motion_dot": -1.228e-05,
        "meta_mean_motion_ddot": 0,
        "tle_line1": "1 66715U 25276BB  25360.57558941 -.00001228  00000+0 -57031-4 0  9991",
        "tle_line2": "2 66715  97.4384  72.1130 0000975 251.7316 108.3812 15.18113260  4535"
      },
      "geometry": {
        "type": "Point",
        "coordinates": [
          19.324121597678754,
          80.71678629279596
        ]
      }
    },
    {
      "type": "Feature",
      "properties": {
        "norad_id": 66716,
        "name": "FLOCK 4H-13",
        "group": "last-30-days",
        "lat": 79.19590351203482,
        "lon": -64.37417813556024,
        "alt_km": 502.4423933755743,
        "timestamp": "2025-12-26T20:30:44.699940+00:00",
        "meta_object_name": "FLOCK 4H-13",
        "meta_object_id": "2025-276BC",
        "meta_epoch": "2025-12-26T12:10:31.971936",
        "meta_mean_motion": 15.18522142,
        "meta_eccentricity": 0.00016107,
        "meta_inclination": 97.4402,
        "meta_ra_of_asc_node": 72.0648,
        "meta_arg_of_pericenter": 152.8729,
        "meta_mean_anomaly": 207.259,
        "meta_ephemeris_type": 0,
        "meta_classification_type": "U",
        "meta_norad_cat_id": 66716,
        "meta_element_set_no": 999,
        "meta_rev_at_epoch": 421,
        "meta_bstar": -0.0031584752,
        "meta_mean_motion_dot": -0.00064631,
        "meta_mean_motion_ddot": 0,
        "tle_line1": "1 66716U 25276BC  25360.50731449 -.00064631  00000+0 -31585-2 0  9992",
        "tle_line2": "2 66716  97.4402  72.0648 0001610 152.8729 207.2590 15.18522142  4216"
      },
      "geometry": {
        "type": "Point",
        "coordinates": [
          -64.37417813556024,
          79.19590351203482
        ]
      }
    },
    {
      "type": "Feature",
      "properties": {
        "norad_id": 66717,
        "name": "FLOCK 4H-14",
        "group": "last-30-days",
        "lat": 68.20645783375438,
        "lon": -88.51161875060349,
        "alt_km": 502.9010186197311,
        "timestamp": "2025-12-26T20:30:44.699949+00:00",
        "meta_object_name": "FLOCK 4H-14",
        "meta_object_id": "2025-276BD",
        "meta_epoch": "2025-12-26T15:16:57.575136",
        "meta_mean_motion": 15.18396708,
        "meta_eccentricity": 0.00017774,
        "meta_inclination": 97.4407,
        "meta_ra_of_asc_node": 72.1959,
        "meta_arg_of_pericenter": 129.3523,
        "meta_mean_anomaly": 230.7869,
        "meta_ephemeris_type": 0,
        "meta_classification_type": "U",
        "meta_norad_cat_id": 66717,
        "meta_element_set_no": 999,
        "meta_rev_at_epoch": 348,
        "meta_bstar": 0.00034777248,
        "meta_mean_motion_dot": 7.087e-05,
        "meta_mean_motion_ddot": 0,
        "tle_line1": "1 66717U 25276BD  25360.63677749  .00007087  00000+0  34777-3 0  9996",
        "tle_line2": "2 66717  97.4407  72.1959 0001777 129.3523 230.7869 15.18396708  3488"
      },
      "geometry": {
        "type": "Point",
        "coordinates": [
          -88.51161875060349,
          68.20645783375438
        ]
      }
    }
  ]
}